0 EXPRESS 4A
1 27441U 02029A   13281.83404626 -.00000123  00000-0  10000-3 0  3804
2 27441 003.5701 066.7976 0004292 085.6188 151.4904 01.00272569 41506
0 EXPRESS 4A
1 27441U 02029A   13283.20819115 -.00000127  00000-0  10000-3 0  3815
2 27441 003.5730 066.7844 0004334 085.2589 287.9092 01.00272388 41524
0 EXPRESS 4A
1 27441U 02029A   13284.28834120 -.00000130  00000-0  10000-3 0  3822
2 27441 003.5755 066.7740 0004400 085.1905 317.9034 01.00272186 41538
0 EXPRESS 4A
1 27441U 02029A   13285.82889358 -.00000134  00000-0  10000-3 0  3831
2 27441 003.5789 066.7592 0004399 084.0746 155.1501 01.00272064 41545
0 EXPRESS 4A
1 27441U 02029A   13287.34455510 -.00000135  00000-0  10000-3 0  3841
2 27441 003.5821 066.7461 0004781 081.6365 344.7302 01.00271855 41566
0 EXPRESS 4A
1 27441U 02029A   13289.18384234 -.00000134  00000-0  10000-3 0  3859
2 27441 003.5858 066.7301 0004761 082.0209 288.3147 01.00271739 41582
0 EXPRESS 4A
1 27441U 02029A   13290.30297758 -.00000132  00000-0  10000-3 0  3868
2 27441 003.5881 066.7196 0004763 082.1982 332.1388 01.00271703 41598
0 EXPRESS 4A
1 27441U 02029A   13291.32297584 -.00000131  00000-0  10000-3 0  3878
2 27441 003.5901 066.7154 0004654 085.3621 337.1839 01.00271686 41607
0 EXPRESS 4A
1 27441U 02029A   13292.33328791 -.00000129  00000-0  10000-3 0  3883
2 27441 003.5922 066.7079 0004642 086.8084 340.4526 01.00271659 41613
0 EXPRESS 4A
1 27441U 02029A   13293.36042515 -.00000127  00000-0  10000-3 0  3893
2 27441 003.5938 066.7012 0004381 089.7412 348.3061 01.00271633 41628
0 EXPRESS 4A
1 27441U 02029A   13295.18644330 -.00000125  00000-0  10000-3 0  3908
2 27441 003.5975 066.6821 0004382 090.0164 287.2150 01.00271575 41643
